NORAD_CAT_ID,OBJECT_NAME,OBJECT_TYPE,EPOCH,MEAN_MOTION,ECCENTRICITY,INCLINATION,RA_OF_ASC_NODE,ARG_OF_PERICENTER,MEAN_ANOMALY,BSTAR,MEAN_MOTION_DOT,MEAN_MOTION_DDOT,TLE_LINE0,TLE_LINE1,TLE_LINE2,SEMIMAJOR_AXIS,PERIOD,APOGEE,PERIGEE,DECAYED
52835.0,STARLINK-4080,PAYLOAD,2023-05-01 22:33:37,15.08842596,0.0001184,53.2172,35.2044,96.017,264.0957,0.00015393,2.163e-05,0.0,0 STARLINK-4080,1 52835U 22062F   23121.94002305  .00002163  00000-0  15393-3 0  9993,2 52835  53.2172  35.2044 0001184  96.0170 264.0957 15.08842596 48362,6917.872,95.437,540.557,538.918,0.0
52835.0,STARLINK-4080,PAYLOAD,2023-05-02 01:44:24,15.08847775,0.0001228,53.2175,34.6095,93.7098,266.4035,0.00023912,3.521e-05,0.0,0 STARLINK-4080,1 52835U 22062F   23122.07250119  .00003521  00000-0  23912-3 0  9991,2 52835  53.2175  34.6095 0001228  93.7098 266.4035 15.08847775 48385,6917.857,95.437,540.571,538.872,0.0
52835.0,STARLINK-4080,PAYLOAD,2023-05-03 03:10:34,15.08849459,0.0001274,53.2168,29.8517,81.1699,278.9438,0.00025498,3.773e-05,0.0,0 STARLINK-4080,1 52835U 22062F   23123.13234055  .00003773  00000-0  25498-3 0  9990,2 52835  53.2168  29.8517 0001274  81.1699 278.9438 15.08849459 48545,6917.851,95.437,540.598,538.835,0.0
52835.0,STARLINK-4080,PAYLOAD,2023-05-03 11:07:29,15.08845204,0.0001274,53.2174,28.3654,84.9713,275.1425,0.00012155,1.647e-05,0.0,0 STARLINK-4080,1 52835U 22062F   23123.46354139  .00001647  00000-0  12155-3 0  9996,2 52835  53.2174  28.3654 0001274  84.9713 275.1425 15.08845204 48590,6917.864,95.437,540.611,538.848,0.0
52835.0,STARLINK-4080,PAYLOAD,2023-05-03 17:29:02,15.08841094,0.0001343,53.2177,27.1771,82.171,277.9435,7.2447e-05,8.65e-06,0.0,0 STARLINK-4080,1 52835U 22062F   23123.72850413  .00000865  00000-0  72447-4 0  9993,2 52835  53.2177  27.1771 0001343  82.1710 277.9435 15.08841094 48633,6917.877,95.437,540.671,538.813,0.0
52835.0,STARLINK-4080,PAYLOAD,2023-05-03 22:15:11,15.08845082,0.0001343,53.2183,26.285,80.9495,279.1649,6.2581e-05,7.08e-06,0.0,0 STARLINK-4080,1 52835U 22062F   23123.92722218  .00000708  00000-0  62581-4 0  9990,2 52835  53.2183  26.2850 0001343  80.9495 279.1649 15.08845082 48669,6917.865,95.437,540.659,538.801,0.0
52835.0,STARLINK-4080,PAYLOAD,2023-05-04 10:58:17,15.0883198,0.0001473,53.2183,23.9058,84.621,275.495,-8.2082e-05,-1.594e-05,0.0,0 STARLINK-4080,1 52835U 22062F   23124.45714928 -.00001594  00000-0 -82082-4 0  9992,2 52835  53.2183  23.9058 0001473  84.6210 275.4950 15.08831980 48748,6917.905,95.438,540.789,538.751,0.0
52835.0,STARLINK-4080,PAYLOAD,2023-05-04 20:30:36,15.08833018,0.0001139,53.2177,22.1197,95.3985,264.7137,4.2157e-06,-2.21e-06,0.0,0 STARLINK-4080,1 52835U 22062F   23124.85458870 -.00000221  00000-0  42157-5 0  9992,2 52835  53.2177  22.1197 0001139  95.3985 264.7137 15.08833018 48802,6917.902,95.438,540.555,538.979,0.0
52835.0,STARLINK-4080,PAYLOAD,2023-05-05 02:52:08,15.08838668,0.0001193,53.218,20.9301,96.069,264.0438,9.3139e-05,1.195e-05,0.0,0 STARLINK-4080,1 52835U 22062F   23125.11954687  .00001195  00000-0  93139-4 0  9994,2 52835  53.2180  20.9301 0001193  96.0690 264.0438 15.08838668 48847,6917.884,95.438,540.575,538.924,0.0
52835.0,STARLINK-4080,PAYLOAD,2023-05-05 20:21:23,15.08842202,0.0001067,53.2177,17.6596,94.5276,265.5838,0.00017792,2.545e-05,0.0,0 STARLINK-4080,1 52835U 22062F   23125.84818676  .00002545  00000-0  17792-3 0  9991,2 52835  53.2177  17.6596 0001067  94.5276 265.5838 15.08842202 48956,6917.874,95.437,540.477,539.001,0.0
52835.0,STARLINK-4080,PAYLOAD,2023-05-05 23:32:09,15.0884835,9.74e-05,53.2177,17.0644,92.6376,267.4727,0.0002945,4.403e-05,0.0,0 STARLINK-4080,1 52835U 22062F   23125.98066480  .00004403  00000-0  29450-3 0  9993,2 52835  53.2177  17.0644 0000974  92.6376 267.4727 15.08848350 48970,6917.855,95.437,540.394,539.046,0.0
52835.0,STARLINK-4080,PAYLOAD,2023-05-06 23:22:56,15.08853816,8.54e-05,53.217,12.6048,88.5264,271.5826,0.00030989,4.649e-05,0.0,0 STARLINK-4080,1 52835U 22062F   23126.97426146  .00004649  00000-0  30989-3 0  9993,2 52835  53.2170  12.6048 0000854  88.5264 271.5826 15.08853816 49126,6917.838,95.437,540.294,539.112,0.0
52835.0,STARLINK-4080,PAYLOAD,2023-05-07 20:02:57,15.0883785,0.0001225,53.217,8.7401,122.0585,238.0526,-5.5045e-05,-1.164e-05,0.0,0 STARLINK-4080,1 52835U 22062F   23127.83538687 -.00001164  00000-0 -55045-4 0  9995,2 52835  53.2170   8.7401 0001225 122.0585 238.0526 15.08837850 49257,6917.887,95.438,540.599,538.905,0.0
52835.0,STARLINK-4080,PAYLOAD,2023-05-07 21:38:20,15.08835794,9.36e-05,53.2171,8.4491,106.3448,253.7647,-3.2956e-05,-8.12e-06,0.0,0 STARLINK-4080,1 52835U 22062F   23127.90162990 -.00000812  00000-0 -32956-4 0  9998,2 52835  53.2171   8.4491 0000936 106.3448 253.7647 15.08835794 49269,6917.893,95.438,540.406,539.111,0.0
52835.0,STARLINK-4080,PAYLOAD,2023-05-08 21:29:07,15.08849563,8.42e-05,53.2163,3.9811,87.509,272.5998,0.00017233,2.457e-05,0.0,0 STARLINK-4080,1 52835U 22062F   23128.89522566  .00002457  00000-0  17233-3 0  9991,2 52835  53.2163   3.9811 0000842  87.5090 272.5998 15.08849563 49419,6917.851,95.437,540.299,539.134,0.0
52835.0,STARLINK-4080,PAYLOAD,2023-05-08 23:04:30,15.08851142,8.9e-05,53.2166,3.6844,91.7151,268.3943,0.00031943,4.801e-05,0.0,0 STARLINK-4080,1 52835U 22062F   23128.96146606  .00004801  00000-0  31943-3 0  9995,2 52835  53.2166   3.6844 0000890  91.7151 268.3943 15.08851142 49423,6917.846,95.437,540.327,539.096,0.0
52835.0,STARLINK-4080,PAYLOAD,2023-05-10 00:30:40,15.08851575,9.41e-05,53.2172,358.9273,99.9037,260.2062,0.00032852,4.946e-05,0.0,0 STARLINK-4080,1 52835U 22062F   23130.02130640  .00004946  00000-0  32852-3 0  9996,2 52835  53.2172 358.9273 0000941  99.9037 260.2062 15.08851575 49582,6917.845,95.437,540.361,539.059,0.0
52835.0,STARLINK-4080,PAYLOAD,2023-05-10 21:10:41,15.08847734,0.0001008,53.2173,355.0612,104.3991,255.7113,0.00026047,3.861e-05,0.0,0 STARLINK-4080,1 52835U 22062F   23130.88242748  .00003861  00000-0  26047-3 0  9997,2 52835  53.2173 355.0612 0001008 104.3991 255.7113 15.08847734 49716,6917.857,95.437,540.419,539.024,0.0
52835.0,STARLINK-4080,PAYLOAD,2023-05-11 21:01:29,15.08841556,9.97e-05,53.2174,350.6,89.281,270.8296,0.00024152,3.558e-05,0.0,0 STARLINK-4080,1 52835U 22062F   23131.87603251  .00003558  00000-0  24152-3 0  9995,2 52835  53.2174 350.6000 0000997  89.2810 270.8296 15.08841556 49868,6917.876,95.437,540.43,539.051,0.0
52835.0,STARLINK-4080,PAYLOAD,2023-05-12 01:47:38,15.08844871,9.93e-05,53.2168,349.7102,74.9477,285.1625,0.00032151,4.833e-05,0.0,0 STARLINK-4080,1 52835U 22062F   23132.07475305  .00004833  00000-0  32151-3 0  9990,2 52835  53.2168 349.7102 0000993  74.9477 285.1625 15.08844871 49890,6917.866,95.437,540.417,539.044,0.0
52835.0,STARLINK-4080,PAYLOAD,2023-05-12 17:41:30,15.08843269,0.0001006,53.2171,346.7334,91.7868,268.3239,0.00016036,2.265e-05,0.0,0 STARLINK-4080,1 52835U 22062F   23132.73715381  .00002265  00000-0  16036-3 0  9995,2 52835  53.2171 346.7334 0001006  91.7868 268.3239 15.08843269 49990,6917.87,95.437,540.431,539.039,0.0
52835.0,STARLINK-4080,PAYLOAD,2023-05-13 20:43:03,15.08845933,0.0001007,53.217,341.6793,80.3777,279.7329,0.00018495,2.657e-05,0.0,0 STARLINK-4080,1 52835U 22062F   23133.86323192  .00002657  00000-0  18495-3 0  9991,2 52835  53.2170 341.6793 0001007  80.3777 279.7329 15.08845933 50163,6917.862,95.437,540.424,539.031,0.0
52835.0,STARLINK-4080,PAYLOAD,2023-05-14 06:15:22,15.08842246,0.0001031,53.2169,339.895,78.0527,282.058,7.6686e-05,9.33e-06,0.0,0 STARLINK-4080,1 52835U 22062F   23134.26067267  .00000933  00000-0  76686-4 0  9996,2 52835  53.2169 339.8950 0001031  78.0527 282.0580 15.08842246 50226,6917.874,95.437,540.452,539.025,0.0
52835.0,STARLINK-4080,PAYLOAD,2023-05-14 20:33:50,15.08844763,9.68e-05,53.2169,337.2209,94.0978,266.0124,1.0826e-05,-1.15e-06,0.0,0 STARLINK-4080,1 52835U 22062F   23134.85683076 -.00000115  00000-0  10826-4 0  9990,2 52835  53.2169 337.2209 0000968  94.0978 266.0124 15.08844763 50313,6917.866,95.437,540.4,539.061,0.0
52835.0,STARLINK-4080,PAYLOAD,2023-05-15 14:03:05,15.08833665,9.99e-05,53.217,333.9473,96.6105,263.5001,1.1352e-05,-1.07e-06,0.0,0 STARLINK-4080,1 52835U 22062F   23135.58548077 -.00000107  00000-0  11352-4 0  9998,2 52835  53.2170 333.9473 0000999  96.6105 263.5001 15.08833665 50422,6917.9,95.438,540.456,539.074,0.0
52835.0,STARLINK-4080,PAYLOAD,2023-05-15 20:24:37,15.08840251,9.89e-05,53.2169,332.7594,97.4572,262.6533,5.6724e-05,6.15e-06,0.0,0 STARLINK-4080,1 52835U 22062F   23135.85043369  .00000615  00000-0  56724-4 0  9997,2 52835  53.2169 332.7594 0000989  97.4572 262.6533 15.08840251 50460,6917.88,95.438,540.429,539.06,0.0
52835.0,STARLINK-4080,PAYLOAD,2023-05-16 13:53:52,15.08834701,9.81e-05,53.2165,329.4883,100.6011,259.5092,2.7023e-05,1.42e-06,0.0,0 STARLINK-4080,1 52835U 22062F   23136.57907775  .00000142  00000-0  27023-4 0  9992,2 52835  53.2165 329.4883 0000981 100.6011 259.5092 15.08834701 50577,6917.897,95.438,540.44,539.083,0.0
52835.0,STARLINK-4080,PAYLOAD,2023-05-16 21:50:47,15.08841671,9.49e-05,53.2164,328.0015,100.5053,259.6046,0.00020546,2.984e-05,0.0,0 STARLINK-4080,1 52835U 22062F   23136.91027621  .00002984  00000-0  20546-3 0  9991,2 52835  53.2164 328.0015 0000949 100.5053 259.6046 15.08841671 50627,6917.875,95.437,540.397,539.084,0.0
52835.0,STARLINK-4080,PAYLOAD,2023-05-17 20:06:11,15.08843232,9.46e-05,53.2167,323.8379,91.5978,268.5123,0.00020087,2.911e-05,0.0,0 STARLINK-4080,1 52835U 22062F   23137.83763744  .00002911  00000-0  20087-3 0  9996,2 52835  53.2167 323.8379 0000946  91.5978 268.5123 15.08843232 50763,6917.871,95.437,540.39,539.081,0.0
52835.0,STARLINK-4080,PAYLOAD,2023-05-18 00:52:21,15.08847783,9.19e-05,53.2165,322.9458,91.949,268.1608,0.00022705,3.328e-05,0.0,0 STARLINK-4080,1 52835U 22062F   23138.03635511  .00003328  00000-0  22705-3 0  9991,2 52835  53.2165 322.9458 0000919  91.9490 268.1608 15.08847783 50794,6917.857,95.437,540.357,539.086,0.0
